{
    "links": {
        "self": "http://www.neowsapp.com/rest/v1/neo/3879531?api_key=iIulBulltgU6a56xZRHN4H3l9WmuAYTsLGpBGhQ2"
    },
    "id": "3879531",
    "neo_reference_id": "3879531",
    "name": "(2019 UM4)",
    "designation": "2019 UM4",
    "nasa_jpl_url": "http://ssd.jpl.nasa.gov/sbdb.cgi?sstr=3879531",
    "absolute_magnitude_h": 26.2,
    "estimated_diameter": {
        "kilometers": {
            "estimated_diameter_min": 0.0152951935,
            "estimated_diameter_max": 0.0342010925
        },
        "meters": {
            "estimated_diameter_min": 15.2951935344,
            "estimated_diameter_max": 34.201092472
        },
        "miles": {
            "estimated_diameter_min": 0.0095039897,
            "estimated_diameter_max": 0.021251567
        },
        "feet": {
            "estimated_diameter_min": 50.1810827555,
            "estimated_diameter_max": 112.2083122258
        }
    },
    "is_potentially_hazardous_asteroid": false,
    "close_approach_data": [
        {
            "close_approach_date": "1923-04-17",
            "close_approach_date_full": "1923-Apr-17 21:03",
            "epoch_date_close_approach": -1473994620000,
            "relative_velocity": {
                "kilometers_per_second": "3.9041975909",
                "kilometers_per_hour": "14055.1113272383",
                "miles_per_hour": "8733.2995910831"
            },
            "miss_distance": {
                "astronomical": "1.3621853475",
                "lunar": "529.8901001775",
                "kilometers": "203780026.531209825",
                "miles": "126623036.898252585"
            },
            "orbiting_body": "Juptr"
        },
        {
            "close_approach_date": "2017-11-15",
            "close_approach_date_full": "2017-Nov-15 13:52",
            "epoch_date_close_approach": 1510753920000,
            "relative_velocity": {
                "kilometers_per_second": "4.8216592529",
                "kilometers_per_hour": "17357.9733105588",
                "miles_per_hour": "10785.5695828859"
            },
            "miss_distance": {
                "astronomical": "1.8093153917",
                "lunar": "703.8236873713",
                "kilometers": "270669728.756535679",
                "miles": "168186370.5436792102"
            },
            "orbiting_body": "Juptr"
        },
        {
            "close_approach_date": "2019-11-01",
            "close_approach_date_full": "2019-Nov-01 19:14",
            "epoch_date_close_approach": 1572635640000,
            "relative_velocity": {
                "kilometers_per_second": "9.1526308164",
                "kilometers_per_hour": "32949.4709389801",
                "miles_per_hour": "20473.5198731679"
            },
            "miss_distance": {
                "astronomical": "0.028490016",
                "lunar": "11.082616224",
                "kilometers": "4262045.70986592",
                "miles": "2648312.400232896"
            },
            "orbiting_body": "Earth"
        },
        {
            "close_approach_date": "2023-12-30",
            "close_approach_date_full": "2023-Dec-30 17:10",
            "epoch_date_close_approach": 1703956200000,
            "relative_velocity": {
                "kilometers_per_second": "20.7004573685",
                "kilometers_per_hour": "74521.6465264222",
                "miles_per_hour": "46304.8530874871"
            },
            "miss_distance": {
                "astronomical": "0.4446234436",
                "lunar": "172.9585195604",
                "kilometers": "66514720.114625132",
                "miles": "41330330.5663335416"
            },
            "orbiting_body": "Earth"
        },
        {
            "close_approach_date": "2101-12-15",
            "close_approach_date_full": "2101-Dec-15 21:40",
            "epoch_date_close_approach": 4164126000000,
            "relative_velocity": {
                "kilometers_per_second": "14.7974115634",
                "kilometers_per_hour": "53270.6816283098",
                "miles_per_hour": "33100.3299262129"
            },
            "miss_distance": {
                "astronomical": "0.3059463291",
                "lunar": "119.0131220199",
                "kilometers": "45768919.167679017",
                "miles": "28439487.6142317546"
            },
            "orbiting_body": "Earth"
        }
    ],
    "orbital_data": {
        "orbit_id": "7",
        "orbit_determination_date": "2019-11-07 08:14:33",
        "first_observation_date": "2019-10-22",
        "last_observation_date": "2019-11-03",
        "data_arc_in_days": 12,
        "observations_used": 45,
        "orbit_uncertainty": "7",
        "minimum_orbit_intersection": ".0282102",
        "jupiter_tisserand_invariant": "3.141",
        "epoch_osculation": "2459000.5",
        "eccentricity": ".6024800624875449",
        "semi_major_axis": "2.554721292717177",
        "inclination": "9.043004141460434",
        "ascending_node_longitude": "218.0989560576128",
        "orbital_period": "1491.467239586837",
        "perihelion_distance": "1.01555264864267",
        "perihelion_argument": "190.0057014581732",
        "aphelion_distance": "4.093889936791682",
        "perihelion_time": "2458796.690808057926",
        "mean_anomaly": "49.19404674250291",
        "mean_motion": ".241373052283553",
        "equinox": "J2000",
        "orbit_class": {
            "orbit_class_type": "APO",
            "orbit_class_description": "Near-Earth asteroid orbits which cross the Earth’s orbit similar to that of 1862 Apollo",
            "orbit_class_range": "a (semi-major axis) > 1.0 AU; q (perihelion) < 1.017 AU"
        }
    },
    "is_sentry_object": false
}